*******************************************************************************
Ephemeris / WWW_USER Mon Jul 15 19:26:33 2024 Pasadena, USA      / Horizons    
*******************************************************************************
Target body name: (2018 RA1)                      {source: JPL#6}
Center body name: Earth (399)                     {source: DE441}
Center-site name: Gemini South Obs., Cerro Pachon
*******************************************************************************
Start time      : A.D. 2018-Dec-19 23:52:00.0000 UT      
Stop  time      : A.D. 2018-Dec-20 09:28:00.0000 UT      
Step-size       : 1 minutes
*******************************************************************************
Target pole/equ : undefined
Target radii    : undefined                                                    
Center geodetic : 289.2634, -30.2406227, 2.71233  {E-lon(deg),Lat(deg),Alt(km)}
Center cylindric: 289.2634,5517.21435,-3194.81213 {E-lon(deg),Dxy(km),Dz(km)}
Center pole/equ : ITRF93                          {East-longitude positive}
Center radii    : 6378.137, 6378.137, 6356.752 km {Equator_a, b, pole_c}       
Target primary  : Sun
Vis. interferer : MOON (R_eq= 1737.400) km        {source: DE441}
Rel. light bend : Sun                             {source: DE441}
Rel. lght bnd GM: 1.3271E+11 km^3/s^2                                          
Small-body perts: Yes                             {source: SB441-N16}
Atmos refraction: NO (AIRLESS)
RA format       : HMS
Time format     : CAL 
Calendar mode   : Mixed Julian/Gregorian
RTS-only print  : NO       
EOP file        : eop.240715.p241008                                           
EOP coverage    : DATA-BASED 1962-JAN-20 TO 2024-JUL-15. PREDICTS-> 2024-OCT-07
Units conversion: 1 au= 149597870.700 km, c= 299792.458 km/s, 1 day= 86400.0 s 
Table cut-offs 1: Elevation (-90.0deg=NO ),Airmass (>38.000=NO), Daylight (YES)
Table cut-offs 2: Solar elongation (  0.0,180.0=NO ),Local Hour Angle( 0.0=NO )
Table cut-offs 3: RA/DEC angular rate (     0.0=NO )                           
*******************************************************************************
Initial IAU76/J2000 heliocentric ecliptic osculating elements (au, days, deg.):
  EPOCH=  2458369.5 ! 2018-Sep-08.00 (TDB)         Residual RMS= .21275        
   EC= .3232115344739424   QR= .7703453101153647   TP= 2458436.6763547547      
   OM= 166.2054176892707   W=  269.7217787981747   IN= 8.763099478405824       
  Equivalent ICRF heliocentric cartesian coordinates (au, au/d):
   X= 9.899686155013647E-01  Y=-2.468208982240139E-01  Z=-1.030323866474361E-01
  VX=-9.411283005844916E-04 VY= 1.717513364149167E-02 VZ= 4.613440841260365E-03
Asteroid physical parameters (km, seconds, rotational period in hours):        
   GM= n.a.                RAD= n.a.               ROTPER= n.a.                
   H= 26.4                 G= .150                 B-V= n.a.                   
                           ALBEDO= n.a.            STYP= n.a.                  
*******************************************************************************
 Date__(UT)__HR:MN     R.A._________(ICRF)_________DEC
******************************************************
$$SOE
 2018-Dec-20 06:01  m  13 39 45.874943 -16 48 22.62713
 2018-Dec-20 06:02  m  13 39 46.004072 -16 48 22.77930
 2018-Dec-20 06:03  m  13 39 46.133187 -16 48 22.93147
 2018-Dec-20 06:04  m  13 39 46.262288 -16 48 23.08365
 2018-Dec-20 06:05  m  13 39 46.391374 -16 48 23.23583
 2018-Dec-20 06:06  m  13 39 46.520446 -16 48 23.38801
 2018-Dec-20 06:07  m  13 39 46.649503 -16 48 23.54021
 2018-Dec-20 06:08  m  13 39 46.778546 -16 48 23.69240
 2018-Dec-20 06:09  m  13 39 46.907575 -16 48 23.84460
 2018-Dec-20 06:10  m  13 39 47.036589 -16 48 23.99680
 2018-Dec-20 06:11  m  13 39 47.165588 -16 48 24.14901
 2018-Dec-20 06:12  m  13 39 47.294573 -16 48 24.30122
 2018-Dec-20 06:13  m  13 39 47.423544 -16 48 24.45343
 2018-Dec-20 06:14  m  13 39 47.552500 -16 48 24.60564
 2018-Dec-20 06:15  m  13 39 47.681442 -16 48 24.75786
 2018-Dec-20 06:16  m  13 39 47.810369 -16 48 24.91008
 2018-Dec-20 06:17  m  13 39 47.939282 -16 48 25.06230
 2018-Dec-20 06:18  m  13 39 48.068180 -16 48 25.21452
 2018-Dec-20 06:19  m  13 39 48.197064 -16 48 25.36675
 2018-Dec-20 06:20  m  13 39 48.325934 -16 48 25.51897
 2018-Dec-20 06:21  m  13 39 48.454789 -16 48 25.67120
 2018-Dec-20 06:22  m  13 39 48.583629 -16 48 25.82342
 2018-Dec-20 06:23  m  13 39 48.712455 -16 48 25.97565
 2018-Dec-20 06:24  m  13 39 48.841266 -16 48 26.12788
 2018-Dec-20 06:25  m  13 39 48.970063 -16 48 26.28010
 2018-Dec-20 06:26  m  13 39 49.098846 -16 48 26.43233
 2018-Dec-20 06:27  m  13 39 49.227614 -16 48 26.58455
 2018-Dec-20 06:28  m  13 39 49.356367 -16 48 26.73678
 2018-Dec-20 06:29  m  13 39 49.485106 -16 48 26.88900
 2018-Dec-20 06:30  m  13 39 49.613831 -16 48 27.04122
 2018-Dec-20 06:31  m  13 39 49.742541 -16 48 27.19344
 2018-Dec-20 06:32  m  13 39 49.871236 -16 48 27.34566
 2018-Dec-20 06:33  m  13 39 49.999917 -16 48 27.49787
 2018-Dec-20 06:34  m  13 39 50.128584 -16 48 27.65009
 2018-Dec-20 06:35  m  13 39 50.257236 -16 48 27.80229
 2018-Dec-20 06:36  m  13 39 50.385873 -16 48 27.95450
 2018-Dec-20 06:37  m  13 39 50.514496 -16 48 28.10670
 2018-Dec-20 06:38  m  13 39 50.643105 -16 48 28.25890
 2018-Dec-20 06:39  m  13 39 50.771699 -16 48 28.41110
 2018-Dec-20 06:40  m  13 39 50.900279 -16 48 28.56329
 2018-Dec-20 06:41  m  13 39 51.028844 -16 48 28.71548
 2018-Dec-20 06:42  m  13 39 51.157395 -16 48 28.86766
 2018-Dec-20 06:43  m  13 39 51.285931 -16 48 29.01983
 2018-Dec-20 06:44  m  13 39 51.414453 -16 48 29.17201
 2018-Dec-20 06:45  m  13 39 51.542960 -16 48 29.32417
 2018-Dec-20 06:46  m  13 39 51.671453 -16 48 29.47633
 2018-Dec-20 06:47  m  13 39 51.799931 -16 48 29.62849
 2018-Dec-20 06:48  m  13 39 51.928395 -16 48 29.78064
 2018-Dec-20 06:49  m  13 39 52.056845 -16 48 29.93278
 2018-Dec-20 06:50  m  13 39 52.185280 -16 48 30.08491
 2018-Dec-20 06:51  m  13 39 52.313701 -16 48 30.23704
 2018-Dec-20 06:52  m  13 39 52.442107 -16 48 30.38916
 2018-Dec-20 06:53  m  13 39 52.570499 -16 48 30.54127
 2018-Dec-20 06:54  m  13 39 52.698876 -16 48 30.69338
 2018-Dec-20 06:55  m  13 39 52.827239 -16 48 30.84548
 2018-Dec-20 06:56  m  13 39 52.955588 -16 48 30.99757
 2018-Dec-20 06:57  m  13 39 53.083922 -16 48 31.14965
 2018-Dec-20 06:58  m  13 39 53.212242 -16 48 31.30172
 2018-Dec-20 06:59  m  13 39 53.340548 -16 48 31.45378
 2018-Dec-20 07:00  m  13 39 53.468839 -16 48 31.60583
 2018-Dec-20 07:01  m  13 39 53.597116 -16 48 31.75787
 2018-Dec-20 07:02  m  13 39 53.725379 -16 48 31.90991
 2018-Dec-20 07:03  m  13 39 53.853627 -16 48 32.06193
 2018-Dec-20 07:04  m  13 39 53.981861 -16 48 32.21394
 2018-Dec-20 07:05  m  13 39 54.110080 -16 48 32.36595
 2018-Dec-20 07:06  m  13 39 54.238285 -16 48 32.51794
 2018-Dec-20 07:07  m  13 39 54.366476 -16 48 32.66992
 2018-Dec-20 07:08  m  13 39 54.494653 -16 48 32.82188
 2018-Dec-20 07:09  m  13 39 54.622815 -16 48 32.97384
 2018-Dec-20 07:10  m  13 39 54.750964 -16 48 33.12579
 2018-Dec-20 07:11  m  13 39 54.879097 -16 48 33.27772
 2018-Dec-20 07:12  m  13 39 55.007217 -16 48 33.42964
 2018-Dec-20 07:13  m  13 39 55.135323 -16 48 33.58154
 2018-Dec-20 07:14  m  13 39 55.263414 -16 48 33.73344
 2018-Dec-20 07:15  m  13 39 55.391491 -16 48 33.88532
 2018-Dec-20 07:16  m  13 39 55.519554 -16 48 34.03719
 2018-Dec-20 07:17  m  13 39 55.647602 -16 48 34.18904
 2018-Dec-20 07:18  m  13 39 55.775637 -16 48 34.34088
 2018-Dec-20 07:19  m  13 39 55.903657 -16 48 34.49270
 2018-Dec-20 07:20  m  13 39 56.031663 -16 48 34.64452
 2018-Dec-20 07:21  m  13 39 56.159655 -16 48 34.79631
 2018-Dec-20 07:22  m  13 39 56.287633 -16 48 34.94809
 2018-Dec-20 07:23  m  13 39 56.415597 -16 48 35.09986
 2018-Dec-20 07:24  m  13 39 56.543547 -16 48 35.25161
 2018-Dec-20 07:25  m  13 39 56.671483 -16 48 35.40334
 2018-Dec-20 07:26  m  13 39 56.799405 -16 48 35.55506
 2018-Dec-20 07:27  m  13 39 56.927312 -16 48 35.70676
 2018-Dec-20 07:28  m  13 39 57.055206 -16 48 35.85845
 2018-Dec-20 07:29  m  13 39 57.183086 -16 48 36.01012
 2018-Dec-20 07:30  m  13 39 57.310951 -16 48 36.16177
 2018-Dec-20 07:31  m  13 39 57.438803 -16 48 36.31340
 2018-Dec-20 07:32  m  13 39 57.566641 -16 48 36.46502
 2018-Dec-20 07:33  m  13 39 57.694465 -16 48 36.61662
 2018-Dec-20 07:34  m  13 39 57.822274 -16 48 36.76820
 2018-Dec-20 07:35  m  13 39 57.950070 -16 48 36.91976
 2018-Dec-20 07:36  m  13 39 58.077853 -16 48 37.07130
 2018-Dec-20 07:37  m  13 39 58.205621 -16 48 37.22283
 2018-Dec-20 07:38  m  13 39 58.333375 -16 48 37.37433
 2018-Dec-20 07:39  m  13 39 58.461116 -16 48 37.52582
 2018-Dec-20 07:40  m  13 39 58.588843 -16 48 37.67728
 2018-Dec-20 07:41  m  13 39 58.716556 -16 48 37.82873
 2018-Dec-20 07:42  m  13 39 58.844255 -16 48 37.98016
 2018-Dec-20 07:43  m  13 39 58.971941 -16 48 38.13156
 2018-Dec-20 07:44  m  13 39 59.099612 -16 48 38.28295
 2018-Dec-20 07:45  m  13 39 59.227271 -16 48 38.43431
 2018-Dec-20 07:46  m  13 39 59.354915 -16 48 38.58566
 2018-Dec-20 07:47  m  13 39 59.482546 -16 48 38.73698
 2018-Dec-20 07:48  m  13 39 59.610163 -16 48 38.88828
 2018-Dec-20 07:49  m  13 39 59.737766 -16 48 39.03956
 2018-Dec-20 07:50  m  13 39 59.865356 -16 48 39.19082
 2018-Dec-20 07:51  m  13 39 59.992932 -16 48 39.34205
 2018-Dec-20 07:52  m  13 40 00.120495 -16 48 39.49327
 2018-Dec-20 07:53  m  13 40 00.248044 -16 48 39.64445
 2018-Dec-20 07:54  m  13 40 00.375580 -16 48 39.79562
 2018-Dec-20 07:55  m  13 40 00.503102 -16 48 39.94676
 2018-Dec-20 07:56  m  13 40 00.630611 -16 48 40.09788
 2018-Dec-20 07:57  m  13 40 00.758106 -16 48 40.24898
 2018-Dec-20 07:58  m  13 40 00.885588 -16 48 40.40005
 2018-Dec-20 07:59  m  13 40 01.013057 -16 48 40.55110
 2018-Dec-20 08:00     13 40 01.140512 -16 48 40.70212
 2018-Dec-20 08:01 A   13 40 01.267954 -16 48 40.85312
 2018-Dec-20 08:02 A   13 40 01.395382 -16 48 41.00409
 2018-Dec-20 08:03 A   13 40 01.522797 -16 48 41.15504
